{"type":"FeatureCollection","features":[{"type":"Feature","geometry":{"type":"Polygon","coordinates":[[[107.17,16.44],[107.60000000000001,16.450000000000003],[107.59,16.7],[107.18,16.689999999999998],[107.17,16.44]]]},"properties":{"name":"Huyện Phong Điền","cap":"huyen"}},{"type":"Feature","geometry":{"type":"Polygon","coordinates":[[[107.2,16.470000000000002],[107.375,16.470000000000002],[107.375,16.56],[107.2,16.56],[107.2,16.470000000000002]]]},"properties":{"name":"Phong Điền","cap":"xa"}},{"type":"Feature","geometry":{"type":"Polygon","coordinates":[[[107.385,16.470000000000002],[107.56,16.470000000000002],[107.56,16.56],[107.385,16.56],[107.385,16.470000000000002]]]},"properties":{"name":"Điền Hương","cap":"xa"}},{"type":"Feature","geometry":{"type":"Polygon","coordinates":[[[107.2,16.57],[107.375,16.57],[107.375,16.659999999999997],[107.2,16.659999999999997],[107.2,16.57]]]},"properties":{"name":"Điền Môn","cap":"xa"}},{"type":"Feature","geometry":{"type":"Polygon","coordinates":[[[107.385,16.57],[107.56,16.57],[107.56,16.659999999999997],[107.385,16.659999999999997],[107.385,16.57]]]},"properties":{"name":"Phong Bình","cap":"xa"}}]}