{"type":"FeatureCollection","features":[{"type":"Feature","geometry":{"type":"Point","coordinates":[107.37977537738895,16.649825212171507]},"properties":{"id":1,"trangthai":"moi"}},{"type":"Feature","geometry":{"type":"Point","coordinates":[107.47163280479094,16.622316343079167]},"properties":{"id":2,"trangthai":"giadinh"}},{"type":"Feature","geometry":{"type":"Point","coordinates":[107.42624095184928,16.533120001240796]},"properties":{"id":3,"trangthai":"nghiatrang"}},{"type":"Feature","geometry":{"type":"Point","coordinates":[107.21195895671063,16.668818641874825]},"properties":{"id":4,"trangthai":"xong"}},{"type":"Feature","geometry":{"type":"Point","coordinates":[107.39464888823927,16.528219056638523]},"properties":{"id":5,"trangthai":"tieptuc"}},{"type":"Feature","geometry":{"type":"Point","coordinates":[107.39322447642475,16.48420764914344]},"properties":{"id":6,"trangthai":"chua"}},{"type":"Feature","geometry":{"type":"Point","coordinates":[107.44885815674907,16.590525882751038]},"properties":{"id":7,"trangthai":"chuaketqua"}},{"type":"Feature","geometry":{"type":"Point","coordinates":[107.39724282379349,16.646468807078403]},"properties":{"id":8,"trangthai":"khongro"}},{"type":"Feature","geometry":{"type":"Point","coordinates":[107.43018707673171,16.566182189578353]},"properties":{"id":9,"trangthai":"moi"}},{"type":"Feature","geometry":{"type":"Point","coordinates":[107.33232857385822,16.61991915192218]},"properties":{"id":10,"trangthai":"giadinh"}},{"type":"Feature","geometry":{"type":"Point","coordinates":[107.35189790876319,16.590339945816076]},"properties":{"id":11,"trangthai":"nghiatrang"}},{"type":"Feature","geometry":{"type":"Point","coordinates":[107.551118695142,16.497836065139914]},"properties":{"id":12,"trangthai":"xong"}},{"type":"Feature","geometry":{"type":"Point","coordinates":[107.52624952488418,16.559571724759845]},"properties":{"id":13,"trangthai":"tieptuc"}},{"type":"Feature","geometry":{"type":"Point","coordinates":[107.36828787853865,16.583948957076803]},"properties":{"id":14,"trangthai":"chua"}},{"type":"Feature","geometry":{"type":"Point","coordinates":[107.47869930410005,16.57232051095299]},"properties":{"id":15,"trangthai":"chuaketqua"}},{"type":"Feature","geometry":{"type":"Point","coordinates":[107.30116849756621,16.479243146599]},"properties":{"id":16,"trangthai":"khongro"}},{"type":"Feature","geometry":{"type":"Point","coordinates":[107.27383877114066,16.5669571036027]},"properties":{"id":17,"trangthai":"moi"}},{"type":"Feature","geometry":{"type":"Point","coordinates":[107.23538190861598,16.520306472739247]},"properties":{"id":18,"trangthai":"giadinh"}},{"type":"Feature","geometry":{"type":"Point","coordinates":[107.4193188728325,16.62453587562487]},"properties":{"id":19,"trangthai":"nghiatrang"}},{"type":"Feature","geometry":{"type":"Point","coordinates":[107.24980279804807,16.659830464302054]},"properties":{"id":20,"trangthai":"xong"}},{"type":"Feature","geometry":{"type":"Point","coordinates":[107.41676505722067,16.648979035239996]},"properties":{"id":21,"trangthai":"tieptuc"}},{"type":"Feature","geometry":{"type":"Point","coordinates":[107.5496943763508,16.51197091410782]},"properties":{"id":22,"trangthai":"chua"}},{"type":"Feature","geometry":{"type":"Point","coordinates":[107.5478875043043,16.47128694054629]},"properties":{"id":23,"trangthai":"chuaketqua"}},{"type":"Feature","geometry":{"type":"Point","coordinates":[107.4461214204398,16.64954270597277]},"properties":{"id":24,"trangthai":"khongro"}},{"type":"Feature","geometry":{"type":"Point","coordinates":[107.35450949490559,16.55379736644984]},"properties":{"id":25,"trangthai":"moi"}},{"type":"Feature","geometry":{"type":"Point","coordinates":[107.538638933134,16.533266085081166]},"properties":{"id":26,"trangthai":"giadinh"}},{"type":"Feature","geometry":{"type":"Point","coordinates":[107.5450717251696,16.582555655579814]},"properties":{"id":27,"trangthai":"nghiatrang"}},{"type":"Feature","geometry":{"type":"Point","coordinates":[107.36081763636187,16.59783913219859]},"properties":{"id":28,"trangthai":"xong"}},{"type":"Feature","geometry":{"type":"Point","coordinates":[107.47705247127315,16.620719450329926]},"properties":{"id":29,"trangthai":"tieptuc"}},{"type":"Feature","geometry":{"type":"Point","coordinates":[107.50085465657142,16.66675368077148]},"properties":{"id":30,"trangthai":"chua"}},{"type":"Feature","geometry":{"type":"Point","coordinates":[107.3522964390866,16.657105777348033]},"properties":{"id":31,"trangthai":"chuaketqua"}},{"type":"Feature","geometry":{"type":"Point","coordinates":[107.45636111845785,16.49917011291973]},"properties":{"id":32,"trangthai":"khongro"}},{"type":"Feature","geometry":{"type":"Point","coordinates":[107.22223029398994,16.60922749132892]},"properties":{"id":33,"trangthai":"moi"}},{"type":"Feature","geometry":{"type":"Point","coordinates":[107.54923788629262,16.47001486924446]},"properties":{"id":34,"trangthai":"giadinh"}},{"type":"Feature","geometry":{"type":"Point","coordinates":[107.53050624559128,16.603608408060477]},"properties":{"id":35,"trangthai":"nghiatrang"}},{"type":"Feature","geometry":{"type":"Point","coordinates":[107.51735762297248,16.490320853868795]},"properties":{"id":36,"trangthai":"xong"}},{"type":"Feature","geometry":{"type":"Point","coordinates":[107.52522976298967,16.5037758114226]},"properties":{"id":37,"trangthai":"tieptuc"}},{"type":"Feature","geometry":{"type":"Point","coordinates":[107.32811869305041,16.54849637209455]},"properties":{"id":38,"trangthai":"chua"}},{"type":"Feature","geometry":{"type":"Point","coordinates":[107.2417840274196,16.53597315076899]},"properties":{"id":39,"trangthai":"chuaketqua"}},{"type":"Feature","geometry":{"type":"Point","coordinates":[107.4851993729271,16.65745477414722]},"properties":{"id":40,"trangthai":"khongro"}}]}